CCSDS_OMM_VERS = 2.0
CREATION_DATE  = 
ORIGINATOR     = 

OBJECT_NAME    = COSMOS 2278
OBJECT_ID      = 1994-023A
CENTER_NAME    = EARTH
REF_FRAME      = TEME
TIME_SYSTEM    = UTC
MEAN_ELEMENT_THEORY = SGP/SGP4

EPOCH          = 2025-10-26T12:04:57.706752
MEAN_MOTION    = 14.14331482
ECCENTRICITY   = .0010854
INCLINATION    = 71.0509
RA_OF_ASC_NODE = 95.8323
ARG_OF_PERICENTER = 241.5295
MEAN_ANOMALY   = 118.4735

EPHEMERIS_TYPE = 0
CLASSIFICATION_TYPE = U
NORAD_CAT_ID   = 23087
ELEMENT_SET_NO = 999
REV_AT_EPOCH   = 62583
BSTAR          = -.60346E-4
MEAN_MOTION_DOT = -.163E-5
MEAN_MOTION_DDOT = 0

CCSDS_OMM_VERS = 2.0
CREATION_DATE  = 
ORIGINATOR     = 

OBJECT_NAME    = SL-16 R/B
OBJECT_ID      = 1994-023B
CENTER_NAME    = EARTH
REF_FRAME      = TEME
TIME_SYSTEM    = UTC
MEAN_ELEMENT_THEORY = SGP/SGP4

EPOCH          = 2025-10-26T11:16:52.904064
MEAN_MOTION    = 14.14988841
ECCENTRICITY   = .0002542
INCLINATION    = 71.0019
RA_OF_ASC_NODE = 352.7567
ARG_OF_PERICENTER = 184.4214
MEAN_ANOMALY   = 175.6886

EPHEMERIS_TYPE = 0
CLASSIFICATION_TYPE = U
NORAD_CAT_ID   = 23088
ELEMENT_SET_NO = 999
REV_AT_EPOCH   = 62710
BSTAR          = .18876E-3
MEAN_MOTION_DOT = .318E-5
MEAN_MOTION_DDOT = 0

CCSDS_OMM_VERS = 2.0
CREATION_DATE  = 
ORIGINATOR     = 

OBJECT_NAME    = SL-16 R/B
OBJECT_ID      = 1994-074B
CENTER_NAME    = EARTH
REF_FRAME      = TEME
TIME_SYSTEM    = UTC
MEAN_ELEMENT_THEORY = SGP/SGP4

EPOCH          = 2025-10-26T12:56:45.736800
MEAN_MOTION    = 14.79208365
ECCENTRICITY   = .0005368
INCLINATION    = 97.7266
RA_OF_ASC_NODE = 330.7049
ARG_OF_PERICENTER = 306.0746
MEAN_ANOMALY   = 178.3600

EPHEMERIS_TYPE = 0
CLASSIFICATION_TYPE = U
NORAD_CAT_ID   = 23343
ELEMENT_SET_NO = 999
REV_AT_EPOCH   = 66741
BSTAR          = .10022E-3
MEAN_MOTION_DOT = .695E-5
MEAN_MOTION_DDOT = 0

CCSDS_OMM_VERS = 2.0
CREATION_DATE  = 
ORIGINATOR     = 

OBJECT_NAME    = SL-16 R/B
OBJECT_ID      = 1994-077B
CENTER_NAME    = EARTH
REF_FRAME      = TEME
TIME_SYSTEM    = UTC
MEAN_ELEMENT_THEORY = SGP/SGP4

EPOCH          = 2025-10-26T08:42:12.712032
MEAN_MOTION    = 14.15539520
ECCENTRICITY   = .0003397
INCLINATION    = 70.9814
RA_OF_ASC_NODE = 275.0810
ARG_OF_PERICENTER = 321.1581
MEAN_ANOMALY   = 38.9297

EPHEMERIS_TYPE = 0
CLASSIFICATION_TYPE = U
NORAD_CAT_ID   = 23405
ELEMENT_SET_NO = 999
REV_AT_EPOCH   = 59722
BSTAR          = -.78021E-4
MEAN_MOTION_DOT = -.201E-5
MEAN_MOTION_DDOT = 0

CCSDS_OMM_VERS = 2.0
CREATION_DATE  = 
ORIGINATOR     = 

OBJECT_NAME    = ARIANE 40+ R/B
OBJECT_ID      = 1995-021B
CENTER_NAME    = EARTH
REF_FRAME      = TEME
TIME_SYSTEM    = UTC
MEAN_ELEMENT_THEORY = SGP/SGP4

EPOCH          = 2025-10-26T11:11:38.873760
MEAN_MOTION    = 14.39639927
ECCENTRICITY   = .0006895
INCLINATION    = 98.4703
RA_OF_ASC_NODE = 7.6144
ARG_OF_PERICENTER = 175.0021
MEAN_ANOMALY   = 195.7321

EPHEMERIS_TYPE = 0
CLASSIFICATION_TYPE = U
NORAD_CAT_ID   = 23561
ELEMENT_SET_NO = 999
REV_AT_EPOCH   = 59993
BSTAR          = .16192E-3
MEAN_MOTION_DOT = .463E-5
MEAN_MOTION_DDOT = 0

CCSDS_OMM_VERS = 2.0
CREATION_DATE  = 
ORIGINATOR     = 

OBJECT_NAME    = SL-16 R/B
OBJECT_ID      = 1995-058B
CENTER_NAME    = EARTH
REF_FRAME      = TEME
TIME_SYSTEM    = UTC
MEAN_ELEMENT_THEORY = SGP/SGP4

EPOCH          = 2025-10-26T12:06:13.391424
MEAN_MOTION    = 14.15467785
ECCENTRICITY   = .0013923
INCLINATION    = 71.0185
RA_OF_ASC_NODE = 101.9711
ARG_OF_PERICENTER = 316.8043
MEAN_ANOMALY   = 43.1987

EPHEMERIS_TYPE = 0
CLASSIFICATION_TYPE = U
NORAD_CAT_ID   = 23705
ELEMENT_SET_NO = 999
REV_AT_EPOCH   = 54886
BSTAR          = .94827E-4
MEAN_MOTION_DOT = .138E-5
MEAN_MOTION_DDOT = 0

CCSDS_OMM_VERS = 2.0
CREATION_DATE  = 
ORIGINATOR     = 

OBJECT_NAME    = SL-16 R/B
OBJECT_ID      = 1996-051B
CENTER_NAME    = EARTH
REF_FRAME      = TEME
TIME_SYSTEM    = UTC
MEAN_ELEMENT_THEORY = SGP/SGP4

EPOCH          = 2025-10-26T09:24:13.474368
MEAN_MOTION    = 14.12392596
ECCENTRICITY   = .0016933
INCLINATION    = 70.7579
RA_OF_ASC_NODE = 99.4987
ARG_OF_PERICENTER = 322.4930
MEAN_ANOMALY   = 37.5007

EPHEMERIS_TYPE = 0
CLASSIFICATION_TYPE = U
NORAD_CAT_ID   = 24298
ELEMENT_SET_NO = 999
REV_AT_EPOCH   = 50268
BSTAR          = -.32744E-4
MEAN_MOTION_DOT = -.11E-5
MEAN_MOTION_DDOT = 0

CCSDS_OMM_VERS = 2.0
CREATION_DATE  = 
ORIGINATOR     = 

OBJECT_NAME    = ORBVIEW 2 (SEASTAR)
OBJECT_ID      = 1997-037A
CENTER_NAME    = EARTH
REF_FRAME      = TEME
TIME_SYSTEM    = UTC
MEAN_ELEMENT_THEORY = SGP/SGP4

EPOCH          = 2025-10-26T10:40:25.692384
MEAN_MOTION    = 14.35362936
ECCENTRICITY   = .0003222
INCLINATION    = 98.8438
RA_OF_ASC_NODE = 95.3374
ARG_OF_PERICENTER = 94.9993
MEAN_ANOMALY   = 265.1559

EPHEMERIS_TYPE = 0
CLASSIFICATION_TYPE = U
NORAD_CAT_ID   = 24883
ELEMENT_SET_NO = 999
REV_AT_EPOCH   = 48921
BSTAR          = .19536E-3
MEAN_MOTION_DOT = .514E-5
MEAN_MOTION_DDOT = 0

CCSDS_OMM_VERS = 2.0
CREATION_DATE  = 
ORIGINATOR     = 

OBJECT_NAME    = SL-16 R/B
OBJECT_ID      = 1998-043G
CENTER_NAME    = EARTH
REF_FRAME      = TEME
TIME_SYSTEM    = UTC
MEAN_ELEMENT_THEORY = SGP/SGP4

EPOCH          = 2025-10-26T10:29:17.930112
MEAN_MOTION    = 14.26007602
ECCENTRICITY   = .0010694
INCLINATION    = 98.8039
RA_OF_ASC_NODE = 247.0104
ARG_OF_PERICENTER = 48.0263
MEAN_ANOMALY   = 312.1825

EPHEMERIS_TYPE = 0
CLASSIFICATION_TYPE = U
NORAD_CAT_ID   = 25400
ELEMENT_SET_NO = 999
REV_AT_EPOCH   = 41985
BSTAR          = .82133E-4
MEAN_MOTION_DOT = .151E-5
MEAN_MOTION_DDOT = 0

CCSDS_OMM_VERS = 2.0
CREATION_DATE  = 
ORIGINATOR     = 

OBJECT_NAME    = SL-16 R/B
OBJECT_ID      = 1998-045B
CENTER_NAME    = EARTH
REF_FRAME      = TEME
TIME_SYSTEM    = UTC
MEAN_ELEMENT_THEORY = SGP/SGP4

EPOCH          = 2025-10-26T12:15:04.929408
MEAN_MOTION    = 14.16161792
ECCENTRICITY   = .0009283
INCLINATION    = 71.0084
RA_OF_ASC_NODE = 103.7451
ARG_OF_PERICENTER = 238.6899
MEAN_ANOMALY   = 121.3316

EPHEMERIS_TYPE = 0
CLASSIFICATION_TYPE = U
NORAD_CAT_ID   = 25407
ELEMENT_SET_NO = 999
REV_AT_EPOCH   = 40810
BSTAR          = .80181E-4
MEAN_MOTION_DOT = .111E-5
MEAN_MOTION_DDOT = 0

CCSDS_OMM_VERS = 2.0
CREATION_DATE  = 
ORIGINATOR     = 

OBJECT_NAME    = ISS (ZARYA)
OBJECT_ID      = 1998-067A
CENTER_NAME    = EARTH
REF_FRAME      = TEME
TIME_SYSTEM    = UTC
MEAN_ELEMENT_THEORY = SGP/SGP4

EPOCH          = 2025-10-26T12:32:55.377024
MEAN_MOTION    = 15.49491948
ECCENTRICITY   = .0004611
INCLINATION    = 51.6346
RA_OF_ASC_NODE = 16.2410
ARG_OF_PERICENTER = 340.9128
MEAN_ANOMALY   = 19.1687

EPHEMERIS_TYPE = 0
CLASSIFICATION_TYPE = U
NORAD_CAT_ID   = 25544
ELEMENT_SET_NO = 999
REV_AT_EPOCH   = 53553
BSTAR          = .29221E-3
MEAN_MOTION_DOT = .15963E-3
MEAN_MOTION_DDOT = 0

CCSDS_OMM_VERS = 2.0
CREATION_DATE  = 
ORIGINATOR     = 

OBJECT_NAME    = CZ-4B R/B
OBJECT_ID      = 1999-025C
CENTER_NAME    = EARTH
REF_FRAME      = TEME
TIME_SYSTEM    = UTC
MEAN_ELEMENT_THEORY = SGP/SGP4

EPOCH          = 2025-10-26T09:36:18.798048
MEAN_MOTION    = 14.18226293
ECCENTRICITY   = .0037305
INCLINATION    = 98.6841
RA_OF_ASC_NODE = 341.7213
ARG_OF_PERICENTER = 12.8418
MEAN_ANOMALY   = 357.3444

EPHEMERIS_TYPE = 0
CLASSIFICATION_TYPE = U
NORAD_CAT_ID   = 25732
ELEMENT_SET_NO = 999
REV_AT_EPOCH   = 36913
BSTAR          = .7375E-4
MEAN_MOTION_DOT = .109E-5
MEAN_MOTION_DDOT = 0

CCSDS_OMM_VERS = 2.0
CREATION_DATE  = 
ORIGINATOR     = 

OBJECT_NAME    = OKEAN-O
OBJECT_ID      = 1999-039A
CENTER_NAME    = EARTH
REF_FRAME      = TEME
TIME_SYSTEM    = UTC
MEAN_ELEMENT_THEORY = SGP/SGP4

EPOCH          = 2025-10-26T09:34:45.979392
MEAN_MOTION    = 14.80042537
ECCENTRICITY   = .0001856
INCLINATION    = 97.9670
RA_OF_ASC_NODE = 355.4960
ARG_OF_PERICENTER = 80.4640
MEAN_ANOMALY   = 279.6781

EPHEMERIS_TYPE = 0
CLASSIFICATION_TYPE = U
NORAD_CAT_ID   = 25860
ELEMENT_SET_NO = 999
REV_AT_EPOCH   = 41452
BSTAR          = .14737E-3
MEAN_MOTION_DOT = .1064E-4
MEAN_MOTION_DDOT = 0

CCSDS_OMM_VERS = 2.0
CREATION_DATE  = 
ORIGINATOR     = 

OBJECT_NAME    = SL-16 R/B
OBJECT_ID      = 1999-039B
CENTER_NAME    = EARTH
REF_FRAME      = TEME
TIME_SYSTEM    = UTC
MEAN_ELEMENT_THEORY = SGP/SGP4

EPOCH          = 2025-10-26T10:33:38.922912
MEAN_MOTION    = 14.81485410
ECCENTRICITY   = .0014269
INCLINATION    = 98.0195
RA_OF_ASC_NODE = 353.5724
ARG_OF_PERICENTER = 338.0561
MEAN_ANOMALY   = 22.0039

EPHEMERIS_TYPE = 0
CLASSIFICATION_TYPE = U
NORAD_CAT_ID   = 25861
ELEMENT_SET_NO = 999
REV_AT_EPOCH   = 41698
BSTAR          = .11742E-3
MEAN_MOTION_DOT = .867E-5
MEAN_MOTION_DDOT = 0

CCSDS_OMM_VERS = 2.0
CREATION_DATE  = 
ORIGINATOR     = 

OBJECT_NAME    = DELTA 2 R/B
OBJECT_ID      = 1999-041E
CENTER_NAME    = EARTH
REF_FRAME      = TEME
TIME_SYSTEM    = UTC
MEAN_ELEMENT_THEORY = SGP/SGP4

EPOCH          = 2025-10-26T11:28:39.148896
MEAN_MOTION    = 14.11242496
ECCENTRICITY   = .0504508
INCLINATION    = 51.7630
RA_OF_ASC_NODE = 117.0717
ARG_OF_PERICENTER = 312.4653
MEAN_ANOMALY   = 43.4654

EPHEMERIS_TYPE = 0
CLASSIFICATION_TYPE = U
NORAD_CAT_ID   = 25876
ELEMENT_SET_NO = 999
REV_AT_EPOCH   = 34407
BSTAR          = .20261E-3
MEAN_MOTION_DOT = .1018E-4
MEAN_MOTION_DDOT = 0

